{
    "bodies": [
        {
            "name": "TNO-171",
            "mass": 0,
            "semi_major_axis": 245.0,
            "eccentricity": 0.8271428571428572,
            "inclination": 0.1184330563853295,
            "longitude_of_ascending_node": 0.166524721455529,
            "argument_of_perihelion": 0.9727421374986187,
            "mean_anomaly": 1.1066473530459262
        },
        {
            "name": "TNO-172",
            "mass": 0,
            "semi_major_axis": 245.55555555555554,
            "eccentricity": 0.8273015873015873,
            "inclination": 0.11912564735834312,
            "longitude_of_ascending_node": 2.878526506224475,
            "argument_of_perihelion": 2.232431077937082,
            "mean_anomaly": 5.235589071366848
        },
        {
            "name": "TNO-173",
            "mass": 0,
            "semi_major_axis": 246.11111111111111,
            "eccentricity": 0.8274603174603175,
            "inclination": 0.11981823833135674,
            "longitude_of_ascending_node": 1.3398489101669842,
            "argument_of_perihelion": 1.1306140932229611,
            "mean_anomaly": 1.5910312319908166
        },
        {
            "name": "TNO-174",
            "mass": 0,
            "semi_major_axis": 246.66666666666669,
            "eccentricity": 0.8276190476190477,
            "inclination": 0.12051082930437036,
            "longitude_of_ascending_node": 2.3460980615008875,
            "argument_of_perihelion": 1.7882691386325853,
            "mean_anomaly": 2.935493909129219
        },
        {
            "name": "TNO-175",
            "mass": 0,
            "semi_major_axis": 247.22222222222223,
            "eccentricity": 0.8277777777777778,
            "inclination": 0.12120342027738398,
            "longitude_of_ascending_node": 3.5163903333600595,
            "argument_of_perihelion": 2.091023273123287,
            "mean_anomaly": 1.2826946681216167
        },
        {
            "name": "TNO-176",
            "mass": 0,
            "semi_major_axis": 247.77777777777777,
            "eccentricity": 0.827936507936508,
            "inclination": 0.1218960112503976,
            "longitude_of_ascending_node": 2.6819852956210597,
            "argument_of_perihelion": 0.215733184852131,
            "mean_anomaly": 5.4750085625683
        },
        {
            "name": "TNO-177",
            "mass": 0,
            "semi_major_axis": 248.33333333333334,
            "eccentricity": 0.8280952380952381,
            "inclination": 0.12258860222341124,
            "longitude_of_ascending_node": 0.21299352580060502,
            "argument_of_perihelion": 5.836039251084236,
            "mean_anomaly": 2.957255128429131
        },
        {
            "name": "TNO-178",
            "mass": 0,
            "semi_major_axis": 248.8888888888889,
            "eccentricity": 0.8282539682539682,
            "inclination": 0.12328119319642486,
            "longitude_of_ascending_node": 0.4259760185210897,
            "argument_of_perihelion": 4.176749752702304,
            "mean_anomaly": 2.006369185163834
        },
        {
            "name": "TNO-179",
            "mass": 0,
            "semi_major_axis": 249.44444444444446,
            "eccentricity": 0.8284126984126985,
            "inclination": 0.12397378416943848,
            "longitude_of_ascending_node": 3.2369865649955143,
            "argument_of_perihelion": 1.2830953161858132,
            "mean_anomaly": 4.916330060963886
        },
        {
            "name": "TNO-180",
            "mass": 0,
            "semi_major_axis": 250.0,
            "eccentricity": 0.8285714285714286,
            "inclination": 0.1246663751424521,
            "longitude_of_ascending_node": 1.300253249778401,
            "argument_of_perihelion": 3.3655851009737052,
            "mean_anomaly": 5.90257466044156
        },
        {
            "name": "TNO-181",
            "mass": 0,
            "semi_major_axis": 250.55555555555554,
            "eccentricity": 0.8287301587301588,
            "inclination": 0.12535896611546574,
            "longitude_of_ascending_node": 1.0281112978686129,
            "argument_of_perihelion": 3.2257654008616954,
            "mean_anomaly": 0.8797861469948216
        },
        {
            "name": "TNO-182",
            "mass": 0,
            "semi_major_axis": 251.11111111111111,
            "eccentricity": 0.8288888888888889,
            "inclination": 0.12605155708847934,
            "longitude_of_ascending_node": 0.08371714569405365,
            "argument_of_perihelion": 5.272546751386728,
            "mean_anomaly": 0.1703239272005125
        },
        {
            "name": "TNO-183",
            "mass": 0,
            "semi_major_axis": 251.66666666666669,
            "eccentricity": 0.829047619047619,
            "inclination": 0.12674414806149298,
            "longitude_of_ascending_node": 0.8796144171570366,
            "argument_of_perihelion": 1.825407269684164,
            "mean_anomaly": 4.121801882262565
        },
        {
            "name": "TNO-184",
            "mass": 0,
            "semi_major_axis": 252.22222222222223,
            "eccentricity": 0.8292063492063493,
            "inclination": 0.12743673903450659,
            "longitude_of_ascending_node": 0.3809358818211895,
            "argument_of_perihelion": 0.062442701298018155,
            "mean_anomaly": 5.166795923939739
        },
        {
            "name": "TNO-185",
            "mass": 0,
            "semi_major_axis": 252.77777777777777,
            "eccentricity": 0.8293650793650794,
            "inclination": 0.12812933000752022,
            "longitude_of_ascending_node": 2.8296439690789246,
            "argument_of_perihelion": 3.569279042664737,
            "mean_anomaly": 6.179503665881768
        },
        {
            "name": "TNO-186",
            "mass": 0,
            "semi_major_axis": 253.33333333333334,
            "eccentricity": 0.8295238095238096,
            "inclination": 0.12882192098053383,
            "longitude_of_ascending_node": 1.3191412222104666,
            "argument_of_perihelion": 1.2356920957745583,
            "mean_anomaly": 0.11714661019318875
        },
        {
            "name": "TNO-187",
            "mass": 0,
            "semi_major_axis": 253.8888888888889,
            "eccentricity": 0.8296825396825397,
            "inclination": 0.12951451195354746,
            "longitude_of_ascending_node": 5.144704195568291,
            "argument_of_perihelion": 6.167348242680823,
            "mean_anomaly": 5.878643511190729
        },
        {
            "name": "TNO-188",
            "mass": 0,
            "semi_major_axis": 254.44444444444446,
            "eccentricity": 0.8298412698412698,
            "inclination": 0.13020710292656107,
            "longitude_of_ascending_node": 5.45903802768533,
            "argument_of_perihelion": 5.859972532916971,
            "mean_anomaly": 2.5663811649400725
        },
        {
            "name": "TNO-189",
            "mass": 0,
            "semi_major_axis": 255.0,
            "eccentricity": 0.8300000000000001,
            "inclination": 0.1308996938995747,
            "longitude_of_ascending_node": 3.4812997831449537,
            "argument_of_perihelion": 1.8620244105798318,
            "mean_anomaly": 5.052259109701463
        },
        {
            "name": "TNO-190",
            "mass": 0,
            "semi_major_axis": 255.55555555555554,
            "eccentricity": 0.8301587301587302,
            "inclination": 0.13159228487258834,
            "longitude_of_ascending_node": 5.339360864699707,
            "argument_of_perihelion": 2.225463323913119,
            "mean_anomaly": 0.2623218298140142
        },
        {
            "name": "TNO-191",
            "mass": 0,
            "semi_major_axis": 256.1111111111111,
            "eccentricity": 0.8303174603174603,
            "inclination": 0.13228487584560195,
            "longitude_of_ascending_node": 2.136978502096052,
            "argument_of_perihelion": 4.412304543949224,
            "mean_anomaly": 2.5362263641863447
        },
        {
            "name": "TNO-192",
            "mass": 0,
            "semi_major_axis": 256.6666666666667,
            "eccentricity": 0.8304761904761905,
            "inclination": 0.13297746681861558,
            "longitude_of_ascending_node": 0.7502411815319535,
            "argument_of_perihelion": 5.277729202117502,
            "mean_anomaly": 4.522635049393048
        },
        {
            "name": "TNO-193",
            "mass": 0,
            "semi_major_axis": 257.22222222222223,
            "eccentricity": 0.8306349206349207,
            "inclination": 0.1336700577916292,
            "longitude_of_ascending_node": 5.500644385118489,
            "argument_of_perihelion": 3.0895802849768588,
            "mean_anomaly": 3.265829973262348
        },
        {
            "name": "TNO-194",
            "mass": 0,
            "semi_major_axis": 257.77777777777777,
            "eccentricity": 0.8307936507936509,
            "inclination": 0.13436264876464282,
            "longitude_of_ascending_node": 0.9807658567343654,
            "argument_of_perihelion": 3.103102269448779,
            "mean_anomaly": 4.184573082290101
        },
        {
            "name": "TNO-195",
            "mass": 0,
            "semi_major_axis": 258.33333333333337,
            "eccentricity": 0.830952380952381,
            "inclination": 0.13505523973765643,
            "longitude_of_ascending_node": 2.9706329483624017,
            "argument_of_perihelion": 4.295413783373865,
            "mean_anomaly": 1.2045338642520098
        }
    ]
}